NORAD_CAT_ID,OBJECT_NAME,OBJECT_TYPE,EPOCH,MEAN_MOTION,ECCENTRICITY,INCLINATION,RA_OF_ASC_NODE,ARG_OF_PERICENTER,MEAN_ANOMALY,BSTAR,MEAN_MOTION_DOT,MEAN_MOTION_DDOT,TLE_LINE0,TLE_LINE1,TLE_LINE2,SEMIMAJOR_AXIS,PERIOD,APOGEE,PERIGEE,DECAYED
52110.0,STARLINK-3687,PAYLOAD,2022-03-22 16:00:00,15.83990048,0.0001865,53.2172,127.1219,305.249,103.9536,-0.0043083,-0.00890395,0.0,0 STARLINK-3687,1 52110U 22029Y   22081.66667824 -.00890395  00000-0 -43083-2 0  9998,2 52110  53.2172 127.1219 0001865 305.2490 103.9536 15.83990048  1800,6697.307,90.91,320.421,317.923,0.0
52110.0,STARLINK-3687,PAYLOAD,2022-03-23 12:00:00,15.82408051,0.000112,53.2174,122.9372,69.2822,52.2534,-0.0045611,-0.00875414,0.0,0 STARLINK-3687,1 52110U 22029Y   22082.50001157 -.00875414  00000-0 -45611-2 0  9997,2 52110  53.2174 122.9372 0001120  69.2822  52.2534 15.82408051  1930,6701.77,91.001,324.386,322.884,0.0
52110.0,STARLINK-3687,PAYLOAD,2022-03-23 14:00:01,15.82249048,0.0001115,53.2172,122.5192,74.5517,161.9575,-0.0045775,-0.00872307,0.0,0 STARLINK-3687,1 52110U 22029Y   22082.58334491 -.00872307  00000-0 -45775-2 0  9994,2 52110  53.2172 122.5192 0001115  74.5517 161.9575 15.82249048  1424,6702.219,91.01,324.831,323.337,0.0
52110.0,STARLINK-3687,PAYLOAD,2022-03-23 22:00:00,15.81621667,0.0001028,53.2174,120.8461,59.5684,276.3611,-0.0047365,-0.00875947,0.0,0 STARLINK-3687,1 52110U 22029Y   22082.91667824 -.00875947  00000-0 -47365-2 0  9990,2 52110  53.2174 120.8461 0001028  59.5684 276.3611 15.81621667  1474,6703.991,91.046,326.545,325.1670000000001,0.0
52110.0,STARLINK-3687,PAYLOAD,2022-03-24 04:00:00,15.8115228,0.000117,53.2176,119.594,54.9694,265.0274,-0.0048612,-0.00879196,0.0,0 STARLINK-3687,1 52110U 22029Y   22083.16667824 -.00879196  00000-0 -48612-2 0  9994,2 52110  53.2176 119.5940 0001170  54.9694 265.0274 15.81152280  2034,6705.318,91.073,327.967,326.398,0.0
52110.0,STARLINK-3687,PAYLOAD,2022-03-24 14:00:01,15.80361543,0.0001129,53.2173,117.5107,70.7862,101.7132,-0.0049995,-0.00872279,0.0,0 STARLINK-3687,1 52110U 22029Y   22083.58334491 -.00872279  00000-0 -49995-2 0  9991,2 52110  53.2173 117.5107 0001129  70.7862 101.7132 15.80361543  1582,6707.554,91.118,330.177,328.662,0.0
52110.0,STARLINK-3687,PAYLOAD,2022-03-24 22:00:00,15.79733492,0.0001129,53.2174,115.8422,64.0007,205.6505,-0.0051604,-0.00874406,0.0,0 STARLINK-3687,1 52110U 22029Y   22083.91667824 -.00874406  00000-0 -51604-2 0  9991,2 52110  53.2174 115.8422 0001129  64.0007 205.6505 15.79733492  2157,6709.331999999999,91.155,331.955,330.44,0.0
52110.0,STARLINK-3687,PAYLOAD,2022-03-25 14:00:01,15.78475674,0.0001099,53.2171,112.5163,62.6631,39.0198,-0.0054692,-0.00874876,0.0,0 STARLINK-3687,1 52110U 22029Y   22084.58334491 -.00874876  00000-0 -54692-2 0  9997,2 52110  53.2171 112.5163 0001099  62.6631  39.0198 15.78475674  1748,6712.896,91.227,335.499,334.023,0.0
52110.0,STARLINK-3687,PAYLOAD,2022-03-25 20:00:01,15.7800315,0.0001016,53.2175,111.2682,68.8007,14.1161,-0.0055818,-0.00874024,0.0,0 STARLINK-3687,1 52110U 22029Y   22084.83334491 -.00874024  00000-0 -55818-2 0  9991,2 52110  53.2175 111.2682 0001016  68.8007  14.1161 15.78003150  2301,6714.236,91.255,336.783,335.4190000000001,0.0
52110.0,STARLINK-3687,PAYLOAD,2022-03-25 22:00:01,15.778453099999998,0.0001132,53.2173,110.8524,75.7883,120.8445,-0.0056141,-0.00872982,0.0,0 STARLINK-3687,1 52110U 22029Y   22084.91668981 -.00872982  00000-0 -56141-2 0  9995,2 52110  53.2173 110.8524 0001132  75.7883 120.8445 15.77845310  1790,6714.684,91.264,337.309,335.789,0.0
52110.0,STARLINK-3687,PAYLOAD,2022-03-26 12:00:00,15.7674292,0.0001211,53.2176,107.9505,70.1354,200.6552,-0.0058845,-0.00871051,0.0,0 STARLINK-3687,1 52110U 22029Y   22085.50001157 -.00871051  00000-0 -58845-2 0  9996,2 52110  53.2176 107.9505 0001211  70.1354 200.6552 15.76742920  2406,6717.813,91.328,340.492,338.865,0.0
52110.0,STARLINK-3687,PAYLOAD,2022-03-26 14:00:01,15.7658815,9.24e-05,53.2172,107.5357,71.854,312.2076,-0.0059496,-0.00874192,0.0,0 STARLINK-3687,1 52110U 22029Y   22085.58334491 -.00874192  00000-0 -59496-2 0  9996,2 52110  53.2172 107.5357 0000924  71.8540 312.2076 15.76588150  1906,6718.253000000002,91.336,340.73800000000006,339.497,0.0
52110.0,STARLINK-3687,PAYLOAD,2022-03-26 22:00:00,15.75957769,0.0001279,53.2172,105.8766,48.2998,68.377,-0.0061116,-0.00873373,0.0,0 STARLINK-3687,1 52110U 22029Y   22085.91667824 -.00873373  00000-0 -61116-2 0  9994,2 52110  53.2172 105.8766 0001279  48.2998  68.3770 15.75957769  1950,6720.044,91.373,342.769,341.05,0.0
52110.0,STARLINK-3687,PAYLOAD,2022-03-27 04:00:00,15.75487188,0.0001351999999999,53.2175,104.6357,44.0028,51.637,-0.0062561,-0.00875408,0.0,0 STARLINK-3687,1 52110U 22029Y   22086.16667824 -.00875408  00000-0 -62561-2 0  9998,2 52110  53.2175 104.6357 0001352  44.0028  51.6370 15.75487188  2513,6721.382,91.4,344.156,342.338,0.0
52110.0,STARLINK-3687,PAYLOAD,2022-03-27 14:00:01,15.74700854,0.0001045,53.2172,102.5691,76.9752,222.6583,-0.0064706999999999,-0.00874631,0.0,0 STARLINK-3687,1 52110U 22029Y   22086.58334491 -.00874631  00000-0 -64707-2 0  9996,2 52110  53.2172 102.5691 0001045  76.9752 222.6583 15.74700854  2068,6723.62,91.446,346.18699999999984,344.782,0.0
52110.0,STARLINK-3687,PAYLOAD,2022-03-27 22:00:01,15.74065642,0.0001067,53.2173,100.9146,54.6951,335.3526,-0.006576,-0.00865506,0.0,0 STARLINK-3687,1 52110U 22029Y   22086.91668981 -.00865506  00000-0 -65760-2 0  9998,2 52110  53.2173 100.9146 0001067  54.6951 335.3526 15.74065642  2118,6725.428000000001,91.483,348.011,346.576,0.0
52110.0,STARLINK-3687,PAYLOAD,2022-03-28 04:00:00,15.73422755,0.0001269,53.2177,99.6772,55.2185,312.0526,-0.0023431,-0.00320296,0.0,0 STARLINK-3687,1 52110U 22029Y   22087.16667824 -.00320296  00000-0 -23431-2 0  9992,2 52110  53.2177  99.6772 0001269  55.2185 312.0526 15.73422755  2664,6727.26,91.52,349.97900000000016,348.271,0.0
52110.0,STARLINK-3687,PAYLOAD,2022-03-28 14:00:01,15.73207056,0.0001163,53.2171,97.6158,73.1611,135.4596,-3.8003e-05,-5.951e-05,0.0,0 STARLINK-3687,1 52110U 22029Y   22087.58335648 -.00005951  00000-0 -38003-4 0  9995,2 52110  53.2171  97.6158 0001163  73.1611 135.4596 15.73207056  2737,6727.875,91.533,350.523,348.958,0.0
52110.0,STARLINK-3687,PAYLOAD,2022-03-28 22:00:00,15.73210487,0.0001349,53.2163,95.9651,67.4484,230.022,0.00076583,0.00108303,0.0,0 STARLINK-3687,1 52110U 22029Y   22087.91667824  .00108303  00000-0  76583-3 0  9993,2 52110  53.2163  95.9651 0001349  67.4484 230.0220 15.73210487  2274,6727.865,91.533,350.63800000000015,348.8230000000001,0.0
52110.0,STARLINK-3687,PAYLOAD,2022-03-29 04:00:00,15.73307606,0.0001298,53.2166,94.7291,64.7867,209.4045,-0.00061224,-0.00086064,0.0,0 STARLINK-3687,1 52110U 22029Y   22088.16667824 -.00086064  00000-0 -61224-3 0  9998,2 52110  53.2166  94.7291 0001298  64.7867 209.4045 15.73307606  2828,6727.5880000000025,91.527,350.327,348.58,0.0
52110.0,STARLINK-3687,PAYLOAD,2022-03-29 12:00:00,15.73263478,0.000123,53.2163,93.0806,50.4114,312.8056,-0.0001825,-0.00026222,0.0,0 STARLINK-3687,1 52110U 22029Y   22088.50001157 -.00026222  00000-0 -18250-3 0  9998,2 52110  53.2163  93.0806 0001230  50.4114 312.8056 15.73263478  2876,6727.714,91.529,350.407,348.75199999999984,0.0
52110.0,STARLINK-3687,PAYLOAD,2022-03-29 14:00:01,15.73284524,0.0001233,53.2163,92.6675,52.2863,63.1716,-0.00073556,-0.00102967,0.0,0 STARLINK-3687,1 52110U 22029Y   22088.58334491 -.00102967  00000-0 -73556-3 0  9997,2 52110  53.2163  92.6675 0001233  52.2863  63.1716 15.73284524  2378,6727.654,91.528,350.349,348.69,0.0
52110.0,STARLINK-3687,PAYLOAD,2022-03-29 22:00:00,15.73197945,0.0001244,53.2166,91.0158,66.0737,138.3779,-0.00010835,-0.00015796,0.0,0 STARLINK-3687,1 52110U 22029Y   22088.91667824 -.00015796  00000-0 -10835-3 0  9997,2 52110  53.2166  91.0158 0001244  66.0737 138.3779 15.73197945  2436,6727.901,91.533,350.603,348.92900000000014,0.0
52110.0,STARLINK-3687,PAYLOAD,2022-03-30 12:00:00,15.73196867,0.0001426999999999,53.2164,88.1313,58.9919,211.0708,-4.659600000000001e-05,-7.153e-05,0.0,0 STARLINK-3687,1 52110U 22029Y   22089.50001157 -.00007153  00000-0 -46596-4 0  9996,2 52110  53.2164  88.1313 0001427  58.9919 211.0708 15.73196867  3039,6727.904,91.533,350.72900000000016,348.809,0.0
52110.0,STARLINK-3687,PAYLOAD,2022-03-30 14:00:01,15.73195168,0.0001363,53.2163,87.7184,60.7718,321.5895,-6.0589e-05,-9.112e-05,0.0,0 STARLINK-3687,1 52110U 22029Y   22089.58335648 -.00009112  00000-0 -60589-4 0  9994,2 52110  53.2163  87.7184 0001363  60.7718 321.5895 15.73195168  2537,6727.909000000002,91.533,350.691,348.857,0.0
52110.0,STARLINK-3687,PAYLOAD,2022-03-30 22:00:00,15.7318562,0.0001174,53.2164,86.0673,71.4775,39.7242,0.00043899,0.00061402,0.0,0 STARLINK-3687,1 52110U 22029Y   22089.91667824  .00061402  00000-0  43899-3 0  9997,2 52110  53.2164  86.0673 0001174  71.4775  39.7242 15.73185620  2597,6727.936,91.534,350.591,349.011,0.0
52110.0,STARLINK-3687,PAYLOAD,2022-03-31 04:00:00,15.73238644,0.000113,53.2165,84.8315,64.5894,23.3127,-0.00033503,-0.00047451,0.0,0 STARLINK-3687,1 52110U 22029Y   22090.16667824 -.00047451  00000-0 -33503-3 0  9997,2 52110  53.2165  84.8315 0001130  64.5894  23.3127 15.73238644  3142,6727.785,91.531,350.41,348.89,0.0
52110.0,STARLINK-3687,PAYLOAD,2022-03-31 12:00:00,15.73225011,0.0001149,53.2162,83.1827,58.6202,118.2346,0.00042432,0.00059416,0.0,0 STARLINK-3687,1 52110U 22029Y   22090.50001157  .00059416  00000-0  42432-3 0  9999,2 52110  53.2162  83.1827 0001149  58.6202 118.2346 15.73225011  3192,6727.824000000001,91.532,350.462,348.916,0.0
52110.0,STARLINK-3687,PAYLOAD,2022-03-31 14:00:01,15.73274788,0.0001135,53.2164,82.7696,60.585,228.5008,-0.0002661,-0.00037916,0.0,0 STARLINK-3687,1 52110U 22029Y   22090.58334491 -.00037916  00000-0 -26610-3 0  9990,2 52110  53.2164  82.7696 0001135  60.5850 228.5008 15.73274788  2698,6727.682,91.529,350.311,348.783,0.0
